<?xml version="1.0" encoding="UTF-8"?>
<ndm xmlns:xsi="http://www.w3.org/2001/XMLSchema-instance" xsi:noNamespaceSchemaLocation="https://sanaregistry.org/r/ndmxml_unqualified/ndmxml-2.0.0-master-2.0.xsd">
<omm id="CCSDS_OMM_VERS" version="2.0">
<header><CREATION_DATE/><ORIGINATOR/></header><body><segment><metadata><OBJECT_NAME>ORBCOMM FM24</OBJECT_NAME><OBJECT_ID>1998-053D</OBJECT_ID><CENTER_NAME>EARTH</CENTER_NAME><REF_FRAME>TEME</REF_FRAME><TIME_SYSTEM>UTC</TIME_SYSTEM><MEAN_ELEMENT_THEORY>SGP4</MEAN_ELEMENT_THEORY></metadata><data><meanElements><EPOCH>2025-06-17T05:41:20.665536</EPOCH><MEAN_MOTION>14.38103793</MEAN_MOTION><ECCENTRICITY>.000408</ECCENTRICITY><INCLINATION>45.0085</INCLINATION><RA_OF_ASC_NODE>268.8613</RA_OF_ASC_NODE><ARG_OF_PERICENTER>225.5054</ARG_OF_PERICENTER><MEAN_ANOMALY>134.5462</MEAN_ANOMALY></meanElements><tleParameters><EPHEMERIS_TYPE>0</EPHEMERIS_TYPE><CLASSIFICATION_TYPE>U</CLASSIFICATION_TYPE><NORAD_CAT_ID>25478</NORAD_CAT_ID><ELEMENT_SET_NO>999</ELEMENT_SET_NO><REV_AT_EPOCH>39745</REV_AT_EPOCH><BSTAR>.31541E-3</BSTAR><MEAN_MOTION_DOT>.823E-5</MEAN_MOTION_DOT><MEAN_MOTION_DDOT>0</MEAN_MOTION_DDOT></tleParameters></data></segment></body></omm>
<omm id="CCSDS_OMM_VERS" version="2.0">
<header><CREATION_DATE/><ORIGINATOR/></header><body><segment><metadata><OBJECT_NAME>ORBCOMM FM25</OBJECT_NAME><OBJECT_ID>1998-053E</OBJECT_ID><CENTER_NAME>EARTH</CENTER_NAME><REF_FRAME>TEME</REF_FRAME><TIME_SYSTEM>UTC</TIME_SYSTEM><MEAN_ELEMENT_THEORY>SGP4</MEAN_ELEMENT_THEORY></metadata><data><meanElements><EPOCH>2025-06-17T13:20:15.571392</EPOCH><MEAN_MOTION>14.38078917</MEAN_MOTION><ECCENTRICITY>.0006365</ECCENTRICITY><INCLINATION>45.0074</INCLINATION><RA_OF_ASC_NODE>265.6207</RA_OF_ASC_NODE><ARG_OF_PERICENTER>238.7462</ARG_OF_PERICENTER><MEAN_ANOMALY>121.2763</MEAN_ANOMALY></meanElements><tleParameters><EPHEMERIS_TYPE>0</EPHEMERIS_TYPE><CLASSIFICATION_TYPE>U</CLASSIFICATION_TYPE><NORAD_CAT_ID>25479</NORAD_CAT_ID><ELEMENT_SET_NO>999</ELEMENT_SET_NO><REV_AT_EPOCH>39779</REV_AT_EPOCH><BSTAR>.30643E-3</BSTAR><MEAN_MOTION_DOT>.795E-5</MEAN_MOTION_DOT><MEAN_MOTION_DDOT>0</MEAN_MOTION_DDOT></tleParameters></data></segment></body></omm>
<omm id="CCSDS_OMM_VERS" version="2.0">
<header><CREATION_DATE/><ORIGINATOR/></header><body><segment><metadata><OBJECT_NAME>ORBCOMM FM26</OBJECT_NAME><OBJECT_ID>1998-053F</OBJECT_ID><CENTER_NAME>EARTH</CENTER_NAME><REF_FRAME>TEME</REF_FRAME><TIME_SYSTEM>UTC</TIME_SYSTEM><MEAN_ELEMENT_THEORY>SGP4</MEAN_ELEMENT_THEORY></metadata><data><meanElements><EPOCH>2025-06-16T05:55:11.951904</EPOCH><MEAN_MOTION>14.37136809</MEAN_MOTION><ECCENTRICITY>.0007802</ECCENTRICITY><INCLINATION>45.0070</INCLINATION><RA_OF_ASC_NODE>268.2786</RA_OF_ASC_NODE><ARG_OF_PERICENTER>249.3086</ARG_OF_PERICENTER><MEAN_ANOMALY>110.6926</MEAN_ANOMALY></meanElements><tleParameters><EPHEMERIS_TYPE>0</EPHEMERIS_TYPE><CLASSIFICATION_TYPE>U</CLASSIFICATION_TYPE><NORAD_CAT_ID>25480</NORAD_CAT_ID><ELEMENT_SET_NO>999</ELEMENT_SET_NO><REV_AT_EPOCH>39751</REV_AT_EPOCH><BSTAR>.23598E-3</BSTAR><MEAN_MOTION_DOT>.566E-5</MEAN_MOTION_DOT><MEAN_MOTION_DDOT>0</MEAN_MOTION_DDOT></tleParameters></data></segment></body></omm>
<omm id="CCSDS_OMM_VERS" version="2.0">
<header><CREATION_DATE/><ORIGINATOR/></header><body><segment><metadata><OBJECT_NAME>ORBCOMM FM27</OBJECT_NAME><OBJECT_ID>1998-053G</OBJECT_ID><CENTER_NAME>EARTH</CENTER_NAME><REF_FRAME>TEME</REF_FRAME><TIME_SYSTEM>UTC</TIME_SYSTEM><MEAN_ELEMENT_THEORY>SGP4</MEAN_ELEMENT_THEORY></metadata><data><meanElements><EPOCH>2025-06-17T14:42:35.591616</EPOCH><MEAN_MOTION>14.38108700</MEAN_MOTION><ECCENTRICITY>.0002668</ECCENTRICITY><INCLINATION>45.0056</INCLINATION><RA_OF_ASC_NODE>265.5528</RA_OF_ASC_NODE><ARG_OF_PERICENTER>227.8901</ARG_OF_PERICENTER><MEAN_ANOMALY>132.1720</MEAN_ANOMALY></meanElements><tleParameters><EPHEMERIS_TYPE>0</EPHEMERIS_TYPE><CLASSIFICATION_TYPE>U</CLASSIFICATION_TYPE><NORAD_CAT_ID>25481</NORAD_CAT_ID><ELEMENT_SET_NO>999</ELEMENT_SET_NO><REV_AT_EPOCH>39773</REV_AT_EPOCH><BSTAR>.31991E-3</BSTAR><MEAN_MOTION_DOT>.836E-5</MEAN_MOTION_DOT><MEAN_MOTION_DDOT>0</MEAN_MOTION_DDOT></tleParameters></data></segment></body></omm>
<omm id="CCSDS_OMM_VERS" version="2.0">
<header><CREATION_DATE/><ORIGINATOR/></header><body><segment><metadata><OBJECT_NAME>ORBCOMM FM28</OBJECT_NAME><OBJECT_ID>1998-053H</OBJECT_ID><CENTER_NAME>EARTH</CENTER_NAME><REF_FRAME>TEME</REF_FRAME><TIME_SYSTEM>UTC</TIME_SYSTEM><MEAN_ELEMENT_THEORY>SGP4</MEAN_ELEMENT_THEORY></metadata><data><meanElements><EPOCH>2025-06-17T10:36:37.590336</EPOCH><MEAN_MOTION>14.38293917</MEAN_MOTION><ECCENTRICITY>.0006664</ECCENTRICITY><INCLINATION>45.0037</INCLINATION><RA_OF_ASC_NODE>203.8619</RA_OF_ASC_NODE><ARG_OF_PERICENTER>286.1210</ARG_OF_PERICENTER><MEAN_ANOMALY>73.8905</MEAN_ANOMALY></meanElements><tleParameters><EPHEMERIS_TYPE>0</EPHEMERIS_TYPE><CLASSIFICATION_TYPE>U</CLASSIFICATION_TYPE><NORAD_CAT_ID>25482</NORAD_CAT_ID><ELEMENT_SET_NO>999</ELEMENT_SET_NO><REV_AT_EPOCH>39839</REV_AT_EPOCH><BSTAR>.22369E-3</BSTAR><MEAN_MOTION_DOT>.545E-5</MEAN_MOTION_DOT><MEAN_MOTION_DDOT>0</MEAN_MOTION_DDOT></tleParameters></data></segment></body></omm>
<omm id="CCSDS_OMM_VERS" version="2.0">
<header><CREATION_DATE/><ORIGINATOR/></header><body><segment><metadata><OBJECT_NAME>ORBCOMM FM30</OBJECT_NAME><OBJECT_ID>1999-065A</OBJECT_ID><CENTER_NAME>EARTH</CENTER_NAME><REF_FRAME>TEME</REF_FRAME><TIME_SYSTEM>UTC</TIME_SYSTEM><MEAN_ELEMENT_THEORY>SGP4</MEAN_ELEMENT_THEORY></metadata><data><meanElements><EPOCH>2025-06-17T11:42:37.382688</EPOCH><MEAN_MOTION>14.37302767</MEAN_MOTION><ECCENTRICITY>.0007709</ECCENTRICITY><INCLINATION>45.0316</INCLINATION><RA_OF_ASC_NODE>88.2903</RA_OF_ASC_NODE><ARG_OF_PERICENTER>3.9364</ARG_OF_PERICENTER><MEAN_ANOMALY>356.1544</MEAN_ANOMALY></meanElements><tleParameters><EPHEMERIS_TYPE>0</EPHEMERIS_TYPE><CLASSIFICATION_TYPE>U</CLASSIFICATION_TYPE><NORAD_CAT_ID>25980</NORAD_CAT_ID><ELEMENT_SET_NO>999</ELEMENT_SET_NO><REV_AT_EPOCH>33449</REV_AT_EPOCH><BSTAR>.28471E-3</BSTAR><MEAN_MOTION_DOT>.715E-5</MEAN_MOTION_DOT><MEAN_MOTION_DDOT>0</MEAN_MOTION_DDOT></tleParameters></data></segment></body></omm>
<omm id="CCSDS_OMM_VERS" version="2.0">
<header><CREATION_DATE/><ORIGINATOR/></header><body><segment><metadata><OBJECT_NAME>ORBCOMM FM31</OBJECT_NAME><OBJECT_ID>1999-065B</OBJECT_ID><CENTER_NAME>EARTH</CENTER_NAME><REF_FRAME>TEME</REF_FRAME><TIME_SYSTEM>UTC</TIME_SYSTEM><MEAN_ELEMENT_THEORY>SGP4</MEAN_ELEMENT_THEORY></metadata><data><meanElements><EPOCH>2025-06-17T11:04:09.966144</EPOCH><MEAN_MOTION>14.37241061</MEAN_MOTION><ECCENTRICITY>.0004767</ECCENTRICITY><INCLINATION>45.0230</INCLINATION><RA_OF_ASC_NODE>81.9058</RA_OF_ASC_NODE><ARG_OF_PERICENTER>21.9165</ARG_OF_PERICENTER><MEAN_ANOMALY>338.1887</MEAN_ANOMALY></meanElements><tleParameters><EPHEMERIS_TYPE>0</EPHEMERIS_TYPE><CLASSIFICATION_TYPE>U</CLASSIFICATION_TYPE><NORAD_CAT_ID>25981</NORAD_CAT_ID><ELEMENT_SET_NO>999</ELEMENT_SET_NO><REV_AT_EPOCH>33404</REV_AT_EPOCH><BSTAR>.3068E-3</BSTAR><MEAN_MOTION_DOT>.78E-5</MEAN_MOTION_DOT><MEAN_MOTION_DDOT>0</MEAN_MOTION_DDOT></tleParameters></data></segment></body></omm>
<omm id="CCSDS_OMM_VERS" version="2.0">
<header><CREATION_DATE/><ORIGINATOR/></header><body><segment><metadata><OBJECT_NAME>ORBCOMM FM32</OBJECT_NAME><OBJECT_ID>1999-065C</OBJECT_ID><CENTER_NAME>EARTH</CENTER_NAME><REF_FRAME>TEME</REF_FRAME><TIME_SYSTEM>UTC</TIME_SYSTEM><MEAN_ELEMENT_THEORY>SGP4</MEAN_ELEMENT_THEORY></metadata><data><meanElements><EPOCH>2025-06-17T22:12:20.368800</EPOCH><MEAN_MOTION>14.36286753</MEAN_MOTION><ECCENTRICITY>.0007017</ECCENTRICITY><INCLINATION>45.0156</INCLINATION><RA_OF_ASC_NODE>96.2925</RA_OF_ASC_NODE><ARG_OF_PERICENTER>21.5907</ARG_OF_PERICENTER><MEAN_ANOMALY>338.5235</MEAN_ANOMALY></meanElements><tleParameters><EPHEMERIS_TYPE>0</EPHEMERIS_TYPE><CLASSIFICATION_TYPE>U</CLASSIFICATION_TYPE><NORAD_CAT_ID>25982</NORAD_CAT_ID><ELEMENT_SET_NO>999</ELEMENT_SET_NO><REV_AT_EPOCH>33470</REV_AT_EPOCH><BSTAR>.28163E-3</BSTAR><MEAN_MOTION_DOT>.689E-5</MEAN_MOTION_DOT><MEAN_MOTION_DDOT>0</MEAN_MOTION_DDOT></tleParameters></data></segment></body></omm>

</ndm>
