ORBCOMM FM24            
1 25478U 98053D   25168.23704474  .00000823  00000+0  31541-3 0  9993
2 25478  45.0085 268.8613 0004080 225.5054 134.5462 14.38103793397451
ORBCOMM FM25            
1 25479U 98053E   25168.55573578  .00000795  00000+0  30643-3 0  9998
2 25479  45.0074 265.6207 0006365 238.7462 121.2763 14.38078917397794
ORBCOMM FM26            
1 25480U 98053F   25167.24666611  .00000566  00000+0  23598-3 0  9993
2 25480  45.0070 268.2786 0007802 249.3086 110.6926 14.37136809397517
ORBCOMM FM27            
1 25481U 98053G   25168.61291194  .00000836  00000+0  31991-3 0  9992
2 25481  45.0056 265.5528 0002668 227.8901 132.1720 14.38108700397733
ORBCOMM FM28            
1 25482U 98053H   25168.44210174  .00000545  00000+0  22369-3 0  9999
2 25482  45.0037 203.8619 0006664 286.1210  73.8905 14.38293917398394
ORBCOMM FM30            
1 25980U 99065A   25168.48793267  .00000715  00000+0  28471-3 0  9998
2 25980  45.0316  88.2903 0007709   3.9364 356.1544 14.37302767334494
ORBCOMM FM31            
1 25981U 99065B   25168.46122646  .00000780  00000+0  30680-3 0  9991
2 25981  45.0230  81.9058 0004767  21.9165 338.1887 14.37241061334041
ORBCOMM FM32            
1 25982U 99065C   25168.92523575  .00000689  00000+0  28163-3 0  9990
2 25982  45.0156  96.2925 0007017  21.5907 338.5235 14.36286753334702
